start=new Date('2021-11-22T00:00:00.000Z').valueOf();
sats=[{"EPOCH":"2021-11-21T11:56:54.503520","TLE_LINE2":"2 46574  53.0557   6.0013 0001373  73.8094 286.3046 15.06389977 63203","MEAN_MOTION":"15.06389977","TIME_SYSTEM":"UTC","MEAN_ANOMALY":"286.3046","PERIOD":"95.593","MEAN_MOTION_DOT":"-0.00000662","CENTER_NAME":"EARTH","APOAPSIS":"548.195","INCLINATION":"53.0557","OBJECT_TYPE":"PAYLOAD","LAUNCH_DATE":"2020-10-06","BSTAR":"-0.00002555000000","COUNTRY_CODE":"US","REF_FRAME":"TEME","RCS_SIZE":"LARGE","TLE_LINE1":"1 46574U 20070AU  21325.49785305 -.00000662  00000-0 -25550-4 0  9996","RA_OF_ASC_NODE":"6.0013","MEAN_MOTION_DDOT":"0.0000000000000","OBJECT_NAME":"STARLINK-1660","REV_AT_EPOCH":"6320","SITE":"AFETR","ARG_OF_PERICENTER":"73.8094","OBJECT_ID":"2020-070AU","PERIAPSIS":"546.293","EPHEMERIS_TYPE":"0","CLASSIFICATION_TYPE":"U","DECAY_DATE":null,"SEMIMAJOR_AXIS":"6925.379","MEAN_ELEMENT_THEORY":"SGP4","ECCENTRICITY":"0.00013730","FILE":"3220686","ELEMENT_SET_NO":"999","NORAD_CAT_ID":"46574","GP_ID":"190204094"},{"SEMIMAJOR_AXIS":"6925.364","DECAY_DATE":null,"ECCENTRICITY":"0.00015300","MEAN_ELEMENT_THEORY":"SGP4","NORAD_CAT_ID":"46575","GP_ID":"190204845","FILE":"3220686","ELEMENT_SET_NO":"999","ARG_OF_PERICENTER":"58.3823","OBJECT_ID":"2020-070AV","SITE":"AFETR","CLASSIFICATION_TYPE":"U","EPHEMERIS_TYPE":"0","PERIAPSIS":"546.170","COUNTRY_CODE":"US","BSTAR":"0.00011864000000","LAUNCH_DATE":"2020-10-06","RA_OF_ASC_NODE":"341.0332","REV_AT_EPOCH":"6354","MEAN_MOTION_DDOT":"0.0000000000000","OBJECT_NAME":"STARLINK-1675","RCS_SIZE":"LARGE","REF_FRAME":"TEME","TLE_LINE1":"1 46575U 20070AV  21325.48999147  .00001486  00000-0  11864-3 0  9992","MEAN_MOTION":"15.06394931","TLE_LINE2":"2 46575  53.0549 341.0332 0001530  58.3823 301.7315 15.06394931 63548","MEAN_ANOMALY":"301.7315","TIME_SYSTEM":"UTC","EPOCH":"2021-11-21T11:45:35.263008","APOAPSIS":"548.289","CENTER_NAME":"EARTH","MEAN_MOTION_DOT":"0.00001486","OBJECT_TYPE":"PAYLOAD","INCLINATION":"53.0549","PERIOD":"95.592"},{"COUNTRY_CODE":"US","BSTAR":"0.00000785970000","LAUNCH_DATE":"2020-10-06","RA_OF_ASC_NODE":"6.0259","REV_AT_EPOCH":"6320","MEAN_MOTION_DDOT":"0.0000000000000","OBJECT_NAME":"STARLINK-1677","RCS_SIZE":"LARGE","REF_FRAME":"TEME","TLE_LINE1":"1 46576U 20070AW  21325.49048220 -.00000164  00000-0  78597-5 0  9992","TLE_LINE2":"2 46576  53.0556   6.0259 0001345  70.6344 289.4790 15.06387740 63204","MEAN_MOTION":"15.06387740","MEAN_ANOMALY":"289.4790","TIME_SYSTEM":"UTC","EPOCH":"2021-11-21T11:46:17.662080","APOAPSIS":"548.183","CENTER_NAME":"EARTH","MEAN_MOTION_DOT":"-0.00000164","OBJECT_TYPE":"PAYLOAD","INCLINATION":"53.0556","PERIOD":"95.593","SEMIMAJOR_AXIS":"6925.386","DECAY_DATE":null,"ECCENTRICITY":"0.00013450","MEAN_ELEMENT_THEORY":"SGP4","NORAD_CAT_ID":"46576","GP_ID":"190204591","FILE":"3220686","ELEMENT_SET_NO":"999","ARG_OF_PERICENTER":"70.6344","OBJECT_ID":"2020-070AW","SITE":"AFETR","CLASSIFICATION_TYPE":"U","EPHEMERIS_TYPE":"0","PERIAPSIS":"546.320"},{"PERIOD":"95.592","OBJECT_TYPE":"PAYLOAD","INCLINATION":"53.0562","CENTER_NAME":"EARTH","APOAPSIS":"548.251","MEAN_MOTION_DOT":"0.00001456","EPOCH":"2021-11-21T12:28:44.608800","MEAN_ANOMALY":"293.5872","TIME_SYSTEM":"UTC","TLE_LINE2":"2 46577  53.0562   5.9004 0001495  66.5274 293.5872 15.06399263 63200","MEAN_MOTION":"15.06399263","TLE_LINE1":"1 46577U 20070AX  21325.51996075  .00001456  00000-0  11664-3 0  9990","RCS_SIZE":"LARGE","REF_FRAME":"TEME","REV_AT_EPOCH":"6320","MEAN_MOTION_DDOT":"0.0000000000000","OBJECT_NAME":"STARLINK-1682","RA_OF_ASC_NODE":"5.9004","LAUNCH_DATE":"2020-10-06","COUNTRY_CODE":"US","BSTAR":"0.00011664000000","EPHEMERIS_TYPE":"0","PERIAPSIS":"546.180","CLASSIFICATION_TYPE":"U","SITE":"AFETR","OBJECT_ID":"2020-070AX","ARG_OF_PERICENTER":"66.5274","ELEMENT_SET_NO":"999","FILE":"3220686","GP_ID":"190203344","NORAD_CAT_ID":"46577","ECCENTRICITY":"0.00014950","MEAN_ELEMENT_THEORY":"SGP4","SEMIMAJOR_AXIS":"6925.351","DECAY_DATE":null},{"GP_ID":"190203594","NORAD_CAT_ID":"46578","ELEMENT_SET_NO":"999","FILE":"3220686","MEAN_ELEMENT_THEORY":"SGP4","ECCENTRICITY":"0.00014820","DECAY_DATE":null,"SEMIMAJOR_AXIS":"6925.326","CLASSIFICATION_TYPE":"U","PERIAPSIS":"546.164","EPHEMERIS_TYPE":"0","OBJECT_ID":"2020-070AY","ARG_OF_PERICENTER":"62.5088","SITE":"AFETR","MEAN_MOTION_DDOT":"0.0000000000000","OBJECT_NAME":"STARLINK-1683","REV_AT_EPOCH":"6341","RA_OF_ASC_NODE":"351.0098","TLE_LINE1":"1 46578U 20070AY  21325.49643941 -.00000101  00000-0  12112-4 0  9996","REF_FRAME":"TEME","RCS_SIZE":"LARGE","BSTAR":"0.00001211200000","COUNTRY_CODE":"US","LAUNCH_DATE":"2020-10-06","INCLINATION":"53.0559","OBJECT_TYPE":"PAYLOAD","MEAN_MOTION_DOT":"-0.00000101","CENTER_NAME":"EARTH","APOAPSIS":"548.217","PERIOD":"95.592","TIME_SYSTEM":"UTC","MEAN_ANOMALY":"297.6052","TLE_LINE2":"2 46578  53.0559 351.0098 0001482  62.5088 297.6052 15.06407477 63415","MEAN_MOTION":"15.06407477","EPOCH":"2021-11-21T11:54:52.365024"},{"OBJECT_TYPE":"PAYLOAD","INCLINATION":"53.0555","MEAN_MOTION_DOT":"0.00002332","APOAPSIS":"548.224","CENTER_NAME":"EARTH","PERIOD":"95.593","TIME_SYSTEM":"UTC","MEAN_ANOMALY":"292.6945","MEAN_MOTION":"15.06390405","TLE_LINE2":"2 46579  53.0555   7.7548 0001417  67.4194 292.6945 15.06390405 63145","EPOCH":"2021-11-21T02:34:17.496480","MEAN_MOTION_DDOT":"0.0000000000000","OBJECT_NAME":"STARLINK-1705","REV_AT_EPOCH":"6314","RA_OF_ASC_NODE":"7.7548","TLE_LINE1":"1 46579U 20070AZ  21325.10714695  .00002332  00000-0  17547-3 0  9993","REF_FRAME":"TEME","RCS_SIZE":"LARGE","BSTAR":"0.00017547000000","COUNTRY_CODE":"US","LAUNCH_DATE":"2020-10-06","CLASSIFICATION_TYPE":"U","PERIAPSIS":"546.262","EPHEMERIS_TYPE":"0","OBJECT_ID":"2020-070AZ","ARG_OF_PERICENTER":"67.4194","SITE":"AFETR","GP_ID":"190204345","NORAD_CAT_ID":"46579","ELEMENT_SET_NO":"999","FILE":"3220686","MEAN_ELEMENT_THEORY":"SGP4","ECCENTRICITY":"0.00014170","DECAY_DATE":null,"SEMIMAJOR_AXIS":"6925.378"},{"PERIOD":"95.593","CENTER_NAME":"EARTH","APOAPSIS":"548.335","MEAN_MOTION_DOT":"-0.00000559","INCLINATION":"53.0559","OBJECT_TYPE":"PAYLOAD","EPOCH":"2021-11-21T11:35:40.433568","MEAN_MOTION":"15.06390280","TLE_LINE2":"2 46580  53.0559   6.0577 0001577  56.5967 303.5173 15.06390280 63202","MEAN_ANOMALY":"303.5173","TIME_SYSTEM":"UTC","RCS_SIZE":"LARGE","REF_FRAME":"TEME","TLE_LINE1":"1 46580U 20070BA  21325.48310687 -.00000559  00000-0 -18653-4 0  9990","RA_OF_ASC_NODE":"6.0577","REV_AT_EPOCH":"6320","MEAN_MOTION_DDOT":"0.0000000000000","OBJECT_NAME":"STARLINK-1708","LAUNCH_DATE":"2020-10-06","COUNTRY_CODE":"US","BSTAR":"-0.00001865300000","EPHEMERIS_TYPE":"0","PERIAPSIS":"546.151","CLASSIFICATION_TYPE":"U","SITE":"AFETR","ARG_OF_PERICENTER":"56.5967","OBJECT_ID":"2020-070BA","FILE":"3220686","ELEMENT_SET_NO":"999","NORAD_CAT_ID":"46580","GP_ID":"190205092","SEMIMAJOR_AXIS":"6925.378","DECAY_DATE":null,"ECCENTRICITY":"0.00015770","MEAN_ELEMENT_THEORY":"SGP4"},{"EPOCH":"2021-11-21T02:48:12.837600","MEAN_ANOMALY":"296.0158","TIME_SYSTEM":"UTC","TLE_LINE2":"2 46581  53.0559   2.6925 0001662  64.1002 296.0158 15.06393710 63213","MEAN_MOTION":"15.06393710","PERIOD":"95.593","INCLINATION":"53.0559","OBJECT_TYPE":"PAYLOAD","APOAPSIS":"548.384","CENTER_NAME":"EARTH","MEAN_MOTION_DOT":"0.00000395","LAUNCH_DATE":"2020-10-06","COUNTRY_CODE":"US","BSTAR":"0.00004540900000","TLE_LINE1":"1 46581U 20070BB  21325.11681525  .00000395  00000-0  45409-4 0  9998","RCS_SIZE":"LARGE","REF_FRAME":"TEME","REV_AT_EPOCH":"6321","MEAN_MOTION_DDOT":"0.0000000000000","OBJECT_NAME":"STARLINK-1712","RA_OF_ASC_NODE":"2.6925","SITE":"AFETR","OBJECT_ID":"2020-070BB","ARG_OF_PERICENTER":"64.1002","EPHEMERIS_TYPE":"0","PERIAPSIS":"546.082","CLASSIFICATION_TYPE":"U","ECCENTRICITY":"0.00016620","MEAN_ELEMENT_THEORY":"SGP4","SEMIMAJOR_AXIS":"6925.368","DECAY_DATE":null,"ELEMENT_SET_NO":"999","FILE":"3220686","GP_ID":"190203845","NORAD_CAT_ID":"46581"},{"RA_OF_ASC_NODE":"0.0327","REV_AT_EPOCH":"6330","OBJECT_NAME":"STARLINK-1728","MEAN_MOTION_DDOT":"0.0000000000000","RCS_SIZE":"LARGE","REF_FRAME":"TEME","TLE_LINE1":"1 46582U 20070BC  21325.69918432  .00002292  00000-0  17268-3 0  9991","COUNTRY_CODE":"US","BSTAR":"0.00017268000000","LAUNCH_DATE":"2020-10-06","APOAPSIS":"548.490","CENTER_NAME":"EARTH","MEAN_MOTION_DOT":"0.00002292","INCLINATION":"53.0564","OBJECT_TYPE":"PAYLOAD","PERIOD":"95.592","MEAN_MOTION":"15.06406156","TLE_LINE2":"2 46582  53.0564   0.0327 0001871  67.1395 292.9792 15.06406156 63306","MEAN_ANOMALY":"292.9792","TIME_SYSTEM":"UTC","EPOCH":"2021-11-21T16:46:49.525248","NORAD_CAT_ID":"46582","GP_ID":"190211007","FILE":"3220905","ELEMENT_SET_NO":"999","SEMIMAJOR_AXIS":"6925.330","DECAY_DATE":null,"ECCENTRICITY":"0.00018710","MEAN_ELEMENT_THEORY":"SGP4","CLASSIFICATION_TYPE":"U","EPHEMERIS_TYPE":"0","PERIAPSIS":"545.899","ARG_OF_PERICENTER":"67.1395","OBJECT_ID":"2020-070BC","SITE":"AFETR"},{"SITE":"AFETR","OBJECT_ID":"2020-070BD","ARG_OF_PERICENTER":"66.3935","EPHEMERIS_TYPE":"0","PERIAPSIS":"546.414","CLASSIFICATION_TYPE":"U","ECCENTRICITY":"0.00012040","MEAN_ELEMENT_THEORY":"SGP4","SEMIMAJOR_AXIS":"6925.383","DECAY_DATE":null,"ELEMENT_SET_NO":"999","FILE":"3220686","GP_ID":"190204846","NORAD_CAT_ID":"46583","EPOCH":"2021-11-21T10:00:48.113856","MEAN_ANOMALY":"293.7180","TIME_SYSTEM":"UTC","TLE_LINE2":"2 46583  53.0547  21.3676 0001204  66.3935 293.7180 15.06388782 62978","MEAN_MOTION":"15.06388782","PERIOD":"95.593","OBJECT_TYPE":"PAYLOAD","INCLINATION":"53.0547","CENTER_NAME":"EARTH","APOAPSIS":"548.082","MEAN_MOTION_DOT":"0.00000200","LAUNCH_DATE":"2020-10-06","COUNTRY_CODE":"US","BSTAR":"0.00003232400000","TLE_LINE1":"1 46583U 20070BD  21325.41722354  .00000200  00000-0  32324-4 0  9996","RCS_SIZE":"LARGE","REF_FRAME":"TEME","REV_AT_EPOCH":"6297","MEAN_MOTION_DDOT":"0.0000000000000","OBJECT_NAME":"STARLINK-1729","RA_OF_ASC_NODE":"21.3676"}];
